LEMUR-2-FURIAUS         
1 42840U 17042R   26068.96143223  .00025928  00000+0  99966-3 0  9991
2 42840  97.3753 248.4990 0007537  55.8686 304.3266 15.26272951473053
STARLINK-33564          
1 62286U 24237V   26068.44936592  .00018528  00000+0  68165-3 0  9998
2 62286  43.0008 217.8480 0001516 273.0856  86.9822 15.27555199 71153
